Name,Address 1,Address 2,Address 3,City,Country,PostCode
Abbey Gisburne Park MRI Centre,Gisburne Park Estate,Gisburne,,Clitheroe,,BB7 4HX
Abbey King's Park Hospital,Polmaise Road,,,Stirling,,FK7 9PU
Abbey Sefton Hospital,Haigh Road,,,Liverpool,,L22 3XS
Acton Hospital,46 Gunnersbury Lane,,,London,,W3 8EG
Addenbrooke's Hospital,Hills Rd  ,,,Cambridge,,CB2 0QQ
Antrim Hospital,United Hospitals H&SS Trust,45 Bush Road,,Antrim,,BT41 2RL
Ashford & St Peter's MRI Centre,"Departmental Block, Level 2",St Peter's Hospital,Guildford Road,Chertsey,,KT16 0PZ
Ashtead Hospital,The Warren,,,Ashtead,,KT21 2SB
Atkinson Morley MRI Centre,Atkinson's Morley Hospital,Copse Hill,Wimbledon,London,,
Barbican Physiotherapy Clinic,1 The Postern,Wood Street,Barbican,London,,EC2Y 8BJ
Barnet MRI Centre,Barnet General Hospital,Wellhouse lane,,Barnet,,EN5 3DJ
Barts Health NHS Trust,80 Newark St  ,,,London,,E1 2ES
Basildon and Thurrock General Hospitals NHS Trust,Orsett Hospital,Rowley Road,,Orsett,,RM16 3EU
Basildon and Thurrock University Hospitals NHS Foundation Trust,Nethermayne  ,,,Basildon,,SS16 5NL
Battle Hospital,Royal Berkshire & Battle NHS Trust,Oxford Road,,Reading,,RG30 1AG
Bedford Hospital,Bedford Hospital NHS Trust,Kempston Road,,Bedford,,MK42 9DJ
Birmingham Children's Hospital NHS Trust,Steelhouse Lane,,,Birmingham,,B4 6NH
Birmingham Nuffield Hospital,22 Somerset Road,Edgbaston,,Birmingham,,B15 2QQ
Bishop Auckland MRI Centre,Bishop Auckland General Hospital,Cockton Hill Road,,Bishop Auckland,,DL14 6AD
Blackberry Orthopaedic Clinic,Blackberry Court,Walnut Tree,,Milton Keynes,,MK7 7PB
Blossoms Inn Medical Centre,21/26 Garlick Hill,,,London,,EC4V 2AU
Blossoms Inn Medical Centre at,Docklands Healthcare,2 Upper Bank Street,Canary Wharf,London,,E14 5EE
BMI Albyn Hospital,21-24 Albyn Place,,,Aberdeen,,AB10 1RW
BMI Bath Clinic,Claverton Down Road,Combe Down,,Bath,,BA2 7BR
BMI Bishops Wood Hospital,Riskmansworth Road,,,Northwood,,HA6 2JW
BMI Chatsworth Suite,Chesterfield & North,Derbyshire Royal Hospital,Calow,Chesterfield,,S44 5BL
BMI Chelsfield Park Hospital,Bucks Cross Road,Chelsfield,,Orpington,,BR6 7RG
BMI Fawkham Manor Hospital,Manor Lane,Fawkham,,Longfield,,DA3 8ND
BMI Fernbrae Hospital,329 Perth Road,,,Dundee,,DD2 1LJ
BMI Goring Hall Hospital,Bodiam Avenue,Goring-By-Sea,,Worthing,,BN12 5AT
BMI McIndoe Surgical Centre,Holtye Road,,,East Grinstead,,RH19 3EB
BMI Meriden Wing,Walsgrave Hospital,Clifford Bridge Road,Walsgrave,Coventry,,CV2 2DX
BMI Ross Hall Hospital,221 Crookston Road,,,Glasgow,,G52 3NQ
BMI Sarum Road Hospital,Sarum Road,,,Winchester,,SO22 5HA
BMI The Alexandra Hospital - Cheadle,Mill Lane,,,Cheadle,,SK8 2PX
BMI The Beardwood Hospital,Preston New Road,,,Blackburn,,BB2 7AE
BMI The Beaumont Hospital,Old Hall Clough,Chorley New Road,Lostock,Bolton,,BL6 4LA
BMI The Chaucer Hospital,Nackington Road,,,Canterbury,,CT4 7AR
BMI The Chiltern Hospital,London Road,,,Great Missenden,,HP16 0EN
BMI The Clementine Churchill Hospital,Sudbury Hill,,,Harrow,,HA1 3RX
BMI The Droitwich Spa Hospital,St Andrews Road,,,Droitwich Spa,,WR9 8DN
BMI The Esperance Hospital,Hartington Place,,,Eastbourne,,BN21 3BG
BMI The Foscote Private Hospital,2 Foscote Rise,,,Banbury,,OX16 9XP
BMI The Garden Hospital,46-50 Sunny Gardens Road,Hendon,,London,,NW4 1RX
BMI The Hampshire Clinic,Basing Road,Old Basing,,Basingstoke,,RG24 7AL
BMI The Harbour Hospital,St Marys Road,,,Poole,,BH15 2BH
BMI The Highfield Hospital,Manchester Road,,,Rochdale,,CL11 4LZ
BMI The Kings Oak Hospital,Chase Farm (North Side),The Ridgefield,,Enfield,,EN2 8SD
BMI The Manchester Lifestyle Hospital,Victoria Park,108-122 Daisy Bank Road,,Manchester,,M14 5QH
BMI The Manor Hospital,Church End,Biddenham,,Bedford,,MK40 4AW
BMI The Nuneaton Private Hospital,132 Coventry Road,,,Nuneaton,,CV10 7AD
BMI The Paddocks Hospital,Aylesbury Road,,,Princes Risborough,,HP27 OJS
BMI The Park Hospital,Sherwood Lodge Drive,Burnstump Country Park,Arnold,Nottingham,,NG5 8RX
BMI The Princess Margaret Hospital,Osborne Road,,,Windsor,,SL4 3SJ
BMI The Priory Hospital,Priory Road,Edgbaston,,Birmingham,,B5 7UG
BMI The Runnymede Hospital,Guilford Road,Ottershaw,,Chertsey,,KT16 ORQ
BMI The Sandringham Hospital,Gaytom Road,Kings Lynn,,Norfolk,,PE30 4HJ
BMI The Saxon Clinic,Saxon Street,Eaglestone West,,Milton Keynes,,MK6 5LR
BMI The Shelburne Hospital,Queen Alexandra Road,,,High Wycombe,,HP11 2TR
BMI The Sloane Hospital,125-133 Albermarle Road,,,Beckenham,,BR3 5HS
BMI The Somerfield Hospital,63 - 77 London Road,,,Maidstone,,ME16 ODU
BMI The South Cheshire,Private Hospital,Leighton,,Crewe,,CW1 4QP
BMI The Winterbourne Hospital,Herringston Road,,,Dorchester,,DT1 2DR
BMI Thornbury Hospital,312 Fulwood Road,,,Sheffield,,S10 3BR
BMI Three Shires Hospital,The Avenue,,,Northampton,,NN1 5DR
BMI Werndale Hospital,Bancyfelin,,,Carmarthen,,SA33 5NE
Bournemouth Nuffield Hospital,67 Lansdowne Road,,,Bournemouth,,BH1 1RW
Bristol Nuffield Hospital at St. Mary's,Upper Byron Place,Clifton,,Bristol,,BS8 1JU
Bristol Nuffield Hospital at the Chesterfield,3 Clifton Hill,Clifton,,Bristol,,BS8 1BP
Broadgate Medical Centre,Exchange Arcade,Bishopsgate,,London,,EC2M 3WA
BUPA Alexandra Hospital,Impton Lane,,,Walderslade,,ME5 9PG
BUPA Cambridge Lea Hospital,30 New Road,Impington,,Cambridge,,CB4 9EL
BUPA Dunedin Hospital,16 Bath Road,,,Reading,,RG1 6NB
BUPA Fylde Coast Hospital,St Walburgas Road,,,Blackpool,,FY3 8BP
BUPA Gatwick Park Hospital,Povey Cross Road,,,Horley,,RH6 OBB
BUPA Hartswood Hospital,Eagle Way,,,Brentwood,,CM13 3LE
BUPA Hospital Bristol,The Glen,Redland Hill,Durdham Down ,Bristol,,BS6 6UT
BUPA Hospital Bushey,Heathbourne Road,,,Watford,,WD2 1RD
BUPA Hospital Cardiff,Croescadarn Road,Pentwyn,,Cardiff,,CF2 7XL
BUPA Hospital Clare Park,Crondall Lane,Crondall,,Farnham,,GU10 5XX
BUPA Hospital Elland,Elland Lane,,,Elland,,HX5 9EB
BUPA Hospital Harpenden,Ambrose Lane,,,Harpenden,,AL5 4BP
BUPA Hospital Hastings,The Ridge,,,St. Leonards-on-Sea,,TN37 7RE
BUPA Hospital Hull and East Riding,Lowfield Road,Anlaby,,Hull,,HU10 7AZ
BUPA Hospital Leeds,Jackson Avenue,Roundhay,,Leeds,,LS8 1NT
BUPA Hospital Leicester,Gartree Road,Oadby,,Leicester,,LE2 2FF
BUPA Hospital Little Aston,Little Aston Hall Drive,Little Aston,,Sutton Coldfield,,B74 3UP
BUPA Hospital Manchester,Russell Road,Whalley Range,,Manchester,,M16 8AJ
BUPA Hospital Norwich,Old Watton Road,Colney,,Norwich,,NR4 7TD
BUPA Hospital Portsmouth,Bartons Road,,,Havant,,PO9 5NP
BUPA Hospital Southampton,Chalybeate Close,Tremona Road,,Southampton,,SO16 6UY
BUPA Hospital Tunbridge Wells,Fordcombe Road,Fordcombe,,Tunbridge Wells,,TN3 0RD
BUPA Hospital Washington,Picktree Lane,Rickleton,,Washington,,NE38 9JZ
BUPA Livingstone Clinic,"Gound Flootr, Unit 1C",Deer Park Avenue,Fairways Business park,Livingstone,,EH54 8AF
BUPA Longlands Consulting Rooms,Cullingworth Street,,,Dewsbury,,WF13 4AN
BUPA Methley Park Hospital,Methley Park Hospital,Methley Lane,,Leeds,,LS26 9HG
BUPA Murrayfield Hospital - Edinburgh,122 Corstorphine Road,,,Edinburgh,,EH12 6UD
BUPA Murrayfield Hospital - Wirral,Holmwood Drive,Thingwall,,Wirral,,CH61 1AU
BUPA North Cheshire Hospital,Fir Tree Close,Stretton,,Warrington,,WA4 4LU
BUPA Parkway Hospital,1 Damson Parkway,,,Solihull,,B91 2PP
BUPA Regency Hospital,West Street,Macclesfield,,Cheshire,,SK11 8DW
BUPA Roding Hospital,Roding Lane South,Redbridge,,Ilford,,IG4 5PZ
BUPA South Bank Hospital,139 Bath Road,,,Worcester,,WR5 3YB
BUPA St. Saviours Hospital,73 Seabrook Road,,,Hythe,,CT21 5BU
BUPA Wellesley Hospital,Eastern Avenue,,,Southend-on-Sea,,SS2 4XH
BUPA Yale Hospital,Wrexham Technology Park,Croesnewydd Road,,Wrexham,,LL13 7YP
Bury St Edmunds Nuffield Hospital,St Mary's Square,Bury St Edmunds,,Suffolk,,IP33 2AA
Cadogan Place Practice,29 Cadogan Place,,,London,,SW1X 9RX
Cannock MRI Centre,Cannock Chase Hospital,Brunswick Road,,Cannock,,WS11 2XY
Capio Nightingale Hospital,11-19 Lisson Grove,,,London,,NW1 6SH
Capio Nightingale Hospital - Day Hospital,1B Harewood Row,,,London,,NW1 6SE
Capio Nightingale Hospital - Eating,23-24 Enford Street,,,London,,W1 1DG
Capio Nightingale Hospital - Liverpool,Park Road,Waterloo,,Liverpool,,L22 3XE
Capio Nightingale Hospital - Outpatients,7 Lisson Grove,,,London,,NW1 6SH
Cardiff and Vale University Health Board,,,,Cardiff,,CF14 4XW
Casualty Plus,1010 Great West Road,,,Brentford,,TW8 9BA
Central Middlesex MRI Centre,"Unit 4, ACAD Building",Central Middlesex Hospital,"Acton Lane, Park Royal",London,,NW10 7NS
Charing Cross Hospital,Hammersmith Hospitals NHS Trust,Fulham Palace Road,Hammersmith,London,,W6 8RF
Cheadle Royal Hospital,100 Wilmslow Road,,,Cheadle,,SK8 3DG
Chelsea and Westminster Hospital,369 Fulham Rd  ,,,London,,SW10 9NH
Cheltenham and Gloucester,Nuffield,Hatherley Lane,,Cheltenham,,GL51 6SY
Chichester Nuffield Hospital,78 Broyle Road,,,Chichester,,PO19 4BE
Christie Hospital NHS Trust,Nathan House,Wilmslow Road,Withington,Manchester,,M20 4BX
Churchill Hospital,Oxford Radcliffe Hospitals NHS Trust,Old Road,Headington,Oxford,,OX3 7LJ
City Medical,17 St. Helen's Place,,,London,,EC3A 6DG
Claremont Hospital,401 Sandygate Road,,,Sheffield,,S10 5UB
Cleveland Nuffield Hospital,Junction Road,Norton,,Stockton-on-Tees,,TS20 1PX
Cornwall House MRI Centre,Sandy Lane,,,Newcastle-under-Lyme,,ST5 0LZ
Courtfield Medical Centre,73 Courtfield Gardens,,,London,,SW5 0NL
Cromwell Hospital,164-178 Cromwell Road  ,,,London,,SW5 0TU
Darlington MRI Centre,Hollyhurst Road,,,Darlington,,DL3 6UA
Devonshire Hospital,29 - 31 Devonshire Street,,,London,,W1N 1RF
Dewsbury MRI Centre,Dewsbury & District Hospital,HaliF Road,,Dewsbury,,WF13 4HS
dh2 Eltham Clinic,6/7 Grove Market Place,Court Yard,Eltham,London,,SE9 5PU
dh2 Liverpool Clinic,28a Rodney Street (Lower Level),,,Liverpool,,L1 2TQ
Droitwich Knee Clinic,St. Andrew's Road,,,Droitwich,,WR9 8YX
Duchy Hospital,Penventinnie Lane,Treliske,,Truro,,TR1 3UP
Eastbourne Imaging Centre,Eastbourne District Hospital,Kings Drive,,Eastbourne,,BN21 2UD
Eastman Dental Institute for Oral Health,256 Gray's Inn Road,,,London,,WC1X 8LD
Essex Nuffield Hospital,Shenfield Road,,,Brentwood,,CM15 8EH
Euxton Hall Hospital,Wigan Road,Euxton,,Chorley,,PR7 6DY
Exeter Nuffield Hospital,Wonford Road,,,Exeter,,EX2 4UG
Fairfield Independent Hospital,Crank Road,Crank,,St. Helens,,WA11 7RS
Farm Place,Stane Street,Ockley,,Nr. Dorking,,RH5 4NG
Finsbury Healthcare,5 London Wall Buildings,Finsbury Circus,,London,,EC2M 5NS
Fitzwilliam Hospital,Milton Way,South Bretton,,Peterborough,,PE3 9AQ
Fleet Street Medical Centre,2-3 Salisbury Court,,,London,,EC4Y 8JH
Freeman Hospital,Newcastle upon Tyne NHS Trust,High Heaton,,Newcastle upon Tyne,,NE2 1JP
Frenchay Hospital,North Bristol NHS Trust,Frenchay Park Road,Frenchay ,Bristol,,BS16 1LE
Frimley Park Scanning Centre,Frimley Park Hospital,Portsmouth Road,,Frimley,,GU16 5UJ
Fulwood Hall Hospital,Midgery Lane,Fulwood,,Preston,,PR2 5SX
Glasgow Nuffield Hospital,25 Beaconsfield Road,,,Glasgow,,G12 OPJ
Gonstead Clinics UK,22 Harley Street,,,London,,W1G 9PL
Good Hope Hospital NHS Trust,Rectory Road,,,Sutton Coldfield,,B75 7RR
GP-Plus City Centre Healthcare,One Wemyss Place,,,Edinburgh,,EH3 6DH
Great Ormond Street Hospital for Children,Great Ormond Street Hospital for Children NHS Trust,34 Great Ormond Street,,London,,WC1N 3JH
Groin & Hernia Clinic,108 Harley Street,,,London,,W1N 2ET
Grosvenor Nuffield Hospital,Wrexham Road,,,Chester,,CH4 7QP
Groves Medical Centre,73 Coombe Road,,,New Malden,,KT3 4QT
Guildford Diagnostic Imaging Centre,Egerton Road,,,Guildford,,GU2 7XU
Guildford Nuffield Hospital,Stirling Road,,,Guildford,,GU2 7RF
Guy's and St. Thomas' Hospital NHS Trust,Guy's Nuffield House,Newcomen Street,,London,,SE1 1YR
Guy's Hospital ,Great Maze Pond,,,London,,SE1 9RT
Hammersmith Hospital,Hammersmith Hospitals NHS Trust,Du Cane Road,,London,,W12 0HS
Hand Clinic,Oakley Green,,,Windsor,,SL4 4LH
Harefield Hospital,Royal Brompton & Harefield NHS Trust,Hill End Road,,Harefield,,UB9 6JH
Harley Street Wide Open MRI,64 Harley Street,,,London,,W1N 1AE
Hertfordshire MRI Centre,Campus of Queen Elizabeth II Hospital,Howlands,,Welwyn Garden City,,AL7 4HX
Highbank Rehabilitation Centre,Walmersley House,Walmersley Road,,Bury,,BL9 5LX
Highgate Private Hospital,17-19 View Rd  ,,,London,,N6 4DJ
Holly Cottage Chiropractic Clinic,58 Birmingham Road,Sutton Coldfield,,Birmingham,,B72 1QJ
Holly House Hospital,High Road,,,Buckhurst Hill,,IG9 5HX
Homerton University Hospital,Homerton Row ,,,London,,E9 6SR
Hospital of St. John & St. Elizabeth,60 Grove End Road,St. John's Wood,,London,,NW8 9NH
Hove Nuffield Hospital,55 New Church Road,,,Hove,,BN3 4BG
HRH Princess Christian's Hospital,12 Clarence Road,,,Windsor,,SL4 5AG
Huddersfield Nuffield Hospital,Birkby Hall Road,,,Huddersfield,,HD2 2BL
Hull Nuffield Hospital,Entrance 3,Castle Hill Hospital,Castle Road,Cottingham,,HU16 5FQ
International Medical Centre,Beardmore Street,Clydebank,,Dunbartonshire,,G81 4HX
James Cook University Hospital,Marton Rd  ,,,Middlesbrough,,TS4 3BW
Japan Green Medical Centre - City,205-207 City Road,,,London,,EC1 1QE
Japan Green Medical Centre - Acton,"Unit 7, Acton Hill Mews",310-328 Uxbridge Road,,London,,W3 9QN
John Radcliffe Hospital,The Oxford Radcliffe Hospitals NHS Trust,Headley Way,Headlington,Oxford,,OX3 9DU
Joy Walter Clinic,Ridgeway Mews,18a Ridgeway,Wimbledon,London,,SW19 4QN
Joy Walter Clinic,Woodside House,Station Approach,,Hinchley Wood,,KT10 0SR
King Edward VII's Hospital,Sister Agnes,Beaumont Street,,London,,W1N 2AA
King Edwards VII's Hospital,5-10 Beaumont St  Marylebone  ,,,London,,W1G 6AA
King's College Hospital,Denmark Hill  ,,,London,,SE5 9RS
Kingstone MRI Centre,Kingston Hospital,Galsworthy Road,,Kingston-upon-Thames,,KT2 7QB
Lancaster & Lakeland Nuffield Hospital,Meadowside,,,Lancaster,,LA1 3RH
Leeds Teaching Hospitals NHS Trust,,,,Leeds,,LS1 3EX
Leicester Nuffield Hospital,Scraptoft Lane,,,Leicester,,LE5 IHY
Liberty City Clinic,3 Ravey Street,,,London,,EC2A 4QP
Lincoln Nuffield Hospital,Nettleham Road,,,Lincoln,,LN2 1QU
Liverpool Women's Hospital,Crown St  ,,,Liverpool,,L8 7SS
London Bridge Hospital,27 Tooley Street  ,,,London,,SE1 2PR
London Day Surgery Centre,Gloucester House,150 Woodside Lane,,London,,N12 8TP
London Fertility Centre,Cozens House,112A Harley Street,,London,,W1G 7JH
London Independent MRI Centre,The London Independent Hospital,No. 1 Beaumont Square,,London,,E1 4NL
London MRI Centre,110 Harley Street,,,London,,W1G 7JG
London Oncology Clinic,95 Harley Street,,,London,,W1G 6AF
London PET Centre,154 Harley Street,,,London,,W1G 7LJ
Mayday MRI Centre,Mayday University Hospital,London Road,,Thornton Heath,,CR7 7YE
Medicare Francais,3 Harrington Gardens,,,London,,SW7 4JJ
Middlesex Hospital,Woolavington Wing,Cleveland street,,London,,W1N 8AA
Milton Keynes MRI Centre,The MRI Unit,Milton Keynes General Hospital,Eaglestone,Milton Keynes,,MK6 5LD
Moorfields Eye Hospital,162 City Road,,,London,,EC1V 2PD
Mount Stuart Hospital,St Vincent's Road,,,Torquay,,TQ1 4UP
National Hospital for Neurology and Neurosurgery,Nuffield Ward,Queen Square,,London,,WC1N 3BG
New Hall Hospital,Bodenham,,,Salisbury,,SP5 4EY
New Victoria Hospital,184-188 Coombe Lane West,,,Kingston Upon Thames,,KT2 7EG
Newcastle Nuffield Hospital,Clayton Road,Jesmond,,Newcastle upon Tyne,,NE2 1JP
Newcastle upon Tyne Hospitals NHS Foundation Trust,Queen Victoria Rd  ,,,Newcastle upon Tyne,,NE1 4LP
Nippon Medical Centre - South Parkside Hospital,53 Parkside,Wimbledon ,,London,,SW19 5NX
Noble's Hospital,Isle of Man Hospitals,Braddan,,Douglas,,IM1 3PQ
Norfolk and Norwich University Hospital,Colney Ln  ,,,Norwich,,NR4 7UY
North Downs Hospital,46 Tupwood Lane,,,Caterham,,CR3 6DP
North Hampshire MRI Centre,North Hampshire Hospital,Aldermaston Road,,Basingstoke,,RG24 9NA
North London Nuffield Hospital,Cavell Drive,Uplands Park Road,,Enfield,,EN2 7PR
North Manchester MRI Centre,North Manchester General Hospital,Delaunays Road,Crumpsall,Manchester,,M8 5RB
North Middlesex MRI Centre,North Middlesex Hospital,Sterling Way,,London,,N18 1QX
North Staffordshire Nuffield Hospital,Clayton Road,,,Newcastle-Under-Lyme,,ST5 4DB
North Tyneside MRI Centre,North Tyneside General Hospital,Rake Lane,,North Shields,,NE29 8NH
Northampton General Hospital NHS Trust,Cliftonville,,,Northampton,,NN1 5BD
Northern General Hospital,Herries Rd  ,,,Sheffield,,S5 7AU
Northwick Park MRI Centre,Northwick Park Hospital,Watford Road,,Harrow,,HA1 3UJ
Notting Hill Private Medical Practice,Notre Dame House,121 Ladbroke Grove,,London,,W11 1PN
Nottingham City Hospital,Hucknall Rd  ,,,Nottingham,,NG5 1PB
Nottingham Nuffield Hospital,748 Mansfield Road,Woodthorpe,,Nottingham,,NG5 3FZ
Nottingham University Hospitals NHS Trust,Derby Rd  ,,,Nottingham,,NG7 2UH
Nuffield Hospital Cambridge,4 Trumpington Road,,,Cambridge,,CB2 2AF
Nuffield Hospital Derby,Rykneld Road,Littleover,,Derby,,DE23 7SN
Nuffield Hospital Harrogate,Queens Road,,,Harrogate,,HG2 OHF
Nuffield Hospital Haywards Heath,Burrell Road,,,Haywards Heath,,RH16 1UD
Nuffield Hospital Leeds,2 Leighton Street,,,Leeds,,LS1 3EB
Number One Health,1 Harley Street,,,London,,
Oakland Hospital,19 Lancaster Road,,,Salford,,M6 8AQ
Oaks Hospital,Oaks Place,Mile End Road,,Colchester,,CO4 5XR
Orsett Hospital,Rowley Road,,,Orsett,,RM16 3EU
Orthopaedics and Spine Specialist Hospital,1 Stirling Way,Bretton,,Peterborough,,PE3 8YQ
Park Hill Hospital,Thorne Road,,,Doncaster,,DN2 5TH
Pattinson Clinic,The Forge,37 Red Lion Street,,Richmond,,TW9 1RJ
Physio in the City,Cannons Health Club,Stoop Memorial Ground,"Langhorn Drive, Chertsey Road",Twickenham,,TW2 7SX
Physio in the City,Cannons Health Club,Sidmouth Road,Willesden,London,,NW2 5JY
Physio in the City,Cannons Health Club & Spa,Cannons City Club,Cousin Lane,London,,EC4R 3XJ
Physio in the City,Cannons Health Club,Gander Green Lane,,Sutton,,SM1 2EH
Physio in the City,LA Fitness Centre,Royal Oak Centre,Brighton Road,Purley,,CR8 2PG
Physio in the City,Cannons Health Club,Mecklenburgh Place,Bloomsbury,London,,WC1N 2AY
Physio: Chancery Lane,53-64 Chancery Lane,,,London,,WC2A 1QS
Pinehill Hospital,Benslow Lane,,,Hitchin,,SG4 9QZ
Plymouth Nuffield Hospital,Derriford Road,,,Plymouth,,PL6 8BG
Priory Clinic - Nottingham,Ransom Road,,,Nottingham,,NG3 5GS
Priory Hospital London,Priory Lane  ,Roehampton  ,,London,,SW15 5JJ
Purey Cost Nuffield Hospital,Precentor's Court,,,York,,YO1 7EL
Putney Chiropractic Centre,32 Bective Road,Putney,,London,,SW15 2QA
Queen Charlotte's & Chelsea Hospital,Hammersmith Hospitals NHS Trust,Goldhawk Road,,London,,W6 0XG
Queen Elizabeth Hospital,Edgbaston  ,,,Birmingham,,B15 2TH
Queen Elizabeth II Hospital,East and North Hertfordshire NHS Trust,Elizabeth House,Howlands Way,Welwyn Garden City,,AL7 4HQ
Queen's Medical Centre,Derby Rd  ,,,Nottingham,,NG7 2UH
Ravenscourt Park Hospital,Ravenscourt Park,,,London,,W6 0TN
Renacres Hall Hospital,Renacres Lane,,,Ormskirk,,L39 8SE
Rood Lane Medical Group,10 Rood Lane,,,London,,EC3M 8BN
Rowley Hall Hospital,Rowley Park,,,Stafford,,ST17 9AQ
Royal Alexandra Hospital,Corsebar Rd  ,,,Paisley,,PA2 9PN
Royal Berkshire & Battle Hospitals NHS Trust,London Road,,,Reading,,RG1 5AN
Royal Bournemouth Hospital,Castle Ln E  ,,,Bournemouth,,BH7 7DW
Royal Brompton Hospital,Royal Brompton & Harefield NHS Trust,Sydney Street,,London,,SW3 6NP
Royal Cornwall Hospital,Treliske  ,,,Truro,,TR1 3LJ
Royal Free Hospital,The Royal Free Hampstead NHS Trust,Pond Street,,London,,NW3 2QG
Royal Hampshire County Hospital,Winchester & Eastleigh NHS Trust,Romsey Road,,Winchester,,SO22 5DG
Royal Liverpool University Hospital,Prescot St  ,,,Liverpool,,L7 8XP
Royal London Hospital,Whitechapel Road ,,,London,,E1 1BB
Royal National Orthopaedic Hospital NHS Trust,Brockley Hill,,,Stanmore,,HA7 4LP
"Royal National Throat, Nose and Ear Hospital",The Royal Free Hampstead NHS Trust,330 Gray's Inn Road,,London,,WC1X 8DA
Royal Surrey County Hospital NHS Trust,Egerton Road,,,Guildford,,GU2 7XX
Royal Sussex County Hospital,Eastern Rd  ,,,Brighton,,BN2 5BE
Royal United Hospital Bath NHS Trust,Coombe Park,,,Bath,,BA1 3NG
Royal Victoria Hospital,Grosvenor Rd  ,,,Belfast,,BT12 6BA
Royal Victoria Infirmary,Queen Victoria Rd  ,,,Newcastle upon Tyne,,NE1 4LP
Salisbury District Hospital,Salisbury Healthcare NHS Trust,Odstock Road,,Salisbury,,SP2 8BJ
Sandwell MRI Centre,Sandwell General Hospital,Lyndon,,West Bromwich,,B71 4HJ
Santa Maria Hospital,Ffynone Road,,,Swansea,,SA1 6DF
Shropshire MRI Centre,Princess Royal Hospital,Apley Castle,,Tlford,,TF6 6TF
Shropshire Nuffield Hospital,Longden Road,,,Shrewsbury,,SY3 9DP
Sidcup MRI Centre,Queen Mary's Hospital,Frognal Avenue,,Sidcup,,DA14 6LT
Singleton Hospital,Swansea NHS Trust,Sketty Lane,Sketty,Swansea,,SA2 8QA
Sketchley Hall,Manor Way,Sketchley Village,,Burbage,,LE10 3HT
Sloane Square Chiropractors,9a Wilbraham Place,,,London,,SW1X 9AE
Solihull Chiropractic Clinic,2 Northbrook Road,Shirley,,Solihull,,B90 3NT
Somerset MRI Centre,Marsh Lane,,,Nr. Bridgewater,,TA6 6LQ
Somerset Nuffield Hospital,Staplegorve Elm,,,Taunton,,TA2 6AN
South Tees Hospitals NHS Foundation Trust,,,,Middlesbrough,,TS4 3BW
Southampton General Hospital,Southampton University Hospitals NHS Trust,Tremona Road,,Southampton,,SO16 4YD
Southend University Hospital,Prittlewell Chase  ,,,Southend-on-Sea,,SS0 0RY
Southport and Ormskirk Hospital NHS Trust,Town Ln  ,,,Southport,,PR8 6PN
Springfield Hospital,Lawn Lane,Springfield,,Chelmsford,,CM1 7GU
St Anthony's Hospital,801 London Road  ,Cheam  ,,North Cheam,,SM3 9DW
St Bartholomew's Hospital,West Smithfield ,,,London,,EC1A 7BE
St George's University Hospitals NHS Foundation Trust,Blackshaw Rd  ,,,London,,SW17 0QT
St Helier Hospital,Wrythe Lane  ,Carshalton  ,,Surrey,,SM5 1AA
St Thomas' Hospital,Westminster Bridge Road,,,London,,SE1 7EH
St. Hugh's Hospital,Peaks lane,,,Grimsby,,DN32 9RP
St. James's University Hospital,Leeds Teaching Hospitals NHS Trust,Beckett Street,,Leeds,,LS9 7TF
St. Joseph's Hospital,Sisters of St. Joseph of Annecy,Harding Avenue,Malpas,Newport,,NP9 6ZE
St. Mary's Hospital NHS Trust,Lindo Wing,Praed Street,,London,,W2 1NY
Stirling Royal Infirmary,Livilands,,,Stirling,,FK8 2AU
Stockport Imaging Centre,Stepping Hill Hospital,Poplar Grove,,Stockport,,SK2 7JE
Stoke Mandeville Hospital NHS Trust,National Spinal Injuries Centre,Mandeville Road,,Aylesbury,,HP21 8AL
Suffolk Nuffield Hospital at,Foxhall Road,,,Ipswich,,IP4 5SW
Suffolk Nuffield Hospital at Christchurch Park,57-61 Fonnereau Road,,,Ipswich,,IP1 3JN
Sussex MRI Centre,Princess Royal Hospital,Lewes Road,,Haywards Heath,,RH16 4EX
Sussex Nuffield Hospital,Warren Road,Woodingdean,,Brighton,,BN2 6DX
Teddington Memorial Hospital,Private Breast Clinic,Hampton Road,,Teddington,,TW11 0JL
Thames Valley Nuffield Hospital,Wexham Street,,,Wexham,,SL3 6NH
Thanet MRI Centre,Queen Elizabeth the Queen Mother Hospital,St Peter's Road,,Margate,,CT9 4AN
The Acland Hospital,25 Banbury Road,,,Oxford,,OX2 6PD
The Anna Freud Centre,21 Maresfield Gardens,,,London,,NW3 5SD
The Berkshire Independent Hospital,Wensley Road,Coley Park,,Reading,,RG1 6UZ
The Blackheath Hospital,40 - 42 Lee Terrace  ,Blackheath  ,,London,,SE3 9UD
The Cleveland Clinic,33 Grosvenor Place  ,,,London,,SW1X 7HY
The Evelyn Hospital,4 Trumpington Road,,,Cambridge,,CB2 2AF
The Fotheringhay Suite,Lilford Floor,Kettering General Hospital NHS Trust,Rothwell Road,Northants,,NN16 8UZ
The Gainsborough Clinic,22 Barkham Terrace,Lambeth Road,,London,,SE1 7PW
The Harley Street Clinic,35 Weymouth Street ,,,London,,W1G 8BJ
The Harley Street Clinic,35 Weymouth Street,,,London,,W1N 4BJ
The Harley Street General Practice,73 Harley Street,,,London,,W1G 8QJ
The Heart Hospital,UCL Hospitals NHS Trust,47 Wimpole Street,,London,,W1M 7DG
The Hendon Hospital,46/50 Sunny Gardens Road  ,Hendon  ,,London,,NW4 1RP
The Lanes Medical Centre,BA Travel Clinic,Plough Lane,,Stoke Poges,,SL2 4JW
The Lister Hospital,Chelsea Bridge Road  ,,,London,,SW1W 8RH
The London Clinic,5 Devonshire Place  ,,,London,,W1G 6HL
The London Clinic,20 Devonshire Place,,,London,,W1N 2DH
The London Iryo Centre,234-236 Hendon Way,Hendon Central,,London,,NW4 3NE
The London Welbeck Hospital,27 Welbeck Street  ,,,London,,W1G 8EN
The Portland Hospital,234 Great Portland Street  ,,,London,,W1W 5QT
The Portland Hospital for Women and Children,205-209 Great Portland Street,,,London,,W1N 6AH
The Princess Grace Hospital,42-52 Nottingham Place ,,,London,,W1U 5NY
The Princess Grace Hospital,42-52 Nottingham Place,,,London,,W1M 3FD
The Priory - Ticehurst House,Ticehurst,,,Wadhurst,,TN5 7HU
The Priory Clinic - Hove,14-18 New Church Road,,,Hove,,BN3 4FH
The Priory Clinic - Keats House,24-26 St. Thomas Street,,,London,,SE1 9RS
The Priory Grange,Tottingworth Park,,,Heathfield,,TN21 8UN
The Priory Hospital - Altrincham,Rappax Road,,,Altrincham,,WA15 0NX
The Priory Hospital - Bristol,Heath House Lane,Off Bell Hill,,Bristol,,BS16 1EQ
The Priory Hospital - Canterbury,Out-patient Clinic,92B Broad Street,,Canterbury,,CT1 2LU
The Priory Hospital - Chelmsford,Stump Lane,Springfield Green,Springfield,Chelmsford,,CM1 7SJ
The Priory Hospital - Glasgow,38-40 Mansionhouse Road,,,Glasgow,,G41 3DW
The Priory Hospital - North London,The Bourne,Southgate,,London,,N14 6RA
The Priory Hospital - Sturt,Sturt's Lane,,,Walton on the Hill,,KT20 7RQ
The Priory Hospital - Woking,Chobham Road,Knaphill,,Woking,,GU21 2QF
The Priory Hospital - Hayes Grove,Prestons Road,Hayes,,Bromley,,BR2 7AS
The Priory Hospital - Lancashire,Rosemary Lane,Bartle,,Preston,,PR4 0HB
The Priory Hospital - Marchwood,Hythe Road,Marchwood,,Southampton,,SO40 4WU
The Queen Elizabeth Hospital,Gayton Rd  ,,,King's Lynn,,PE30 4ET
The Queen Square Private Hospital,23 Queen Square  ,,,London,,WC1N 3BG
The Radcliffe Infirmary,The Oxford Radcliffe Hospitals NHS Trust,Woodstock Road,,Oxford,,OX2 6HE
The Rivers Hospital,High Wych Road,,,Sawbridgeworth,,CM21 0HH
The Royal Infirmary of Edinburgh,51 Little France Dr  ,,,Edinburgh,,EH16 4SA
The Royal Marsden NHS Trust,203 Fulham Road,Chelsea,,London,,SW3 6JJ
The Royal National,Orthopaedic Hospital,Ian Monroe Ward,41-45 Bolsover Street,London,,W1P 8AQ
The Wellington Hospital,Wellington Place,St Johns Wood Road,,London,,NW8 9LE
The Woodbourne Priory,21 Woodbourne Road,Edgbaston,,Birmingham,,B17 8BY
The Yorkshire Clinic,Bradford Road,,,Bingley,,BD16 1TW
Tower Hill Medical Centre,10 Lloyds Avenue,,,London,,EC3N 3AX
Tunbridge Wells Nuffield Hospital,Kingswood Road,,,Tunbridge Wells,,TN2 4UL
University College Hospital,235 Euston Road,,,London,,NW1 2BU
University College London Hospital,Private Patients Wing,Rosenheim Building,25 Grafton Way,London,,WC1 6DB
Unstead Park Rehabilitation Centre,Munstead Heath Road,,,Godalming,,GU7 1UW
Wakefield & District MRI Centre,Pinderfields Hospital,Aberford Road,,Wakefield,,WF1 4TT
Walsall MRI Centre,Walsall Hospitals NHS Trust,Manor Hospital,Moat Road,Walsall,,WS2 9PS
Warrington MRI Centre,Warrington Hospital,Lovely Lane,,Warrington,,WA5 1QG
Warwickshire Nuffield Hospital,The Chase,Old Milverton Lane,,Leamington Spa,,CV32 6RW
Wessex Nuffield Hospital,Winchester Road,Chandler's Ford,,Eastleigh,,SO53 2DW
West Dorset MRI Centre,Medical Imaging Department,Dorset County Hospital,Williams Avenue,Dorchester,,DT1 2JY
West Middlesex MRI Centre,West Middlesex University Hospital,Twickenham Road,,Isleworth,,TW7 6AF
West Midlands Hospital,Colman Hill,,,Halesowen,,B63 2AH
West Suffolk NHS Foundation Trust,Hardwick Ln  ,,,Bury St Edmunds,,IP33 2QZ
Wexham Park Hospital,Heatherwood and Wexham,Hospital NHS Trust,Wexham Street,Slough,,SL2 4HL
Weymouth Street Hospital,42-46 Weymouth Street  ,,,London,,W1G 6NP
Wharfedale General Hospital,Leeds Teaching Hospitals NHS Trust,Newall Carr Road,Otley,Leeds,,LS21 2LY
Whipps Cross MRI Centre,Whipps Cross University Hospital,Whipps Cross Road,Leytonstone,London,,E11 1NR
Wide Open MRI at Shirley Oaks Hospital,Shirley Oaks Hospital,Poppy Lane,Shirley Oaks,Croydon,,CR9 8AB
Wide Open MRI at The Ridgeway Hospital,The Ridgeway Hospital,Moormead Road,Wroughton,Swindon,,SN4 9DD
Wide Open MRI of Cardiff,Copse Walk,Cardiff Gate Business Park,,Cardiff,,CF23 8RB
Wide Open MRI of North London,30-100 Colindeep Lane,,,London,,NE9 6HB
Winfield Hospital,Tewkesbury Road,,,Longford,,GL2 9WH
Woking Nuffield Hospital,Shores Road,,,Woking,,GU21 4BY
Wolverhampton Nuffield Hospital,Wood Road,Tettenhall,,Wolverhampton,,WV8 8LE
Woodland Hospital,Rothwell Road,,,Kettering,,NN16 8XF
Worcestershire Acute Hospitals NHS Trust,,,,Worcester,,WR5 1DD
Worthing Hospital,Worthing & Southlands Hospitals NHS Trust,Lyndhurst Road,,Worthing,,BN11 2DH
Wye Valley Nuffield Hospital,Venns Lan,,,Hereford,,HR1 1DF
Yeovil District Hospital,East Somerset NHS Trust,Higher Kingston,,Yeovil,,
York & North Yorkshire MRI Centre,Sir Peter Shepherd Building,Wiggington Road,,York,,YO31 8YU
